*******************************************************************************
Ephemeris / WWW_USER Mon Jul 15 19:23:20 2024 Pasadena, USA      / Horizons    
*******************************************************************************
Target body name: (2018 RB1)                      {source: JPL#5}
Center body name: Earth (399)                     {source: DE441}
Center-site name: Gemini South Obs., Cerro Pachon
*******************************************************************************
Start time      : A.D. 2018-Dec-25 23:55:00.0000 UT      
Stop  time      : A.D. 2018-Dec-26 09:31:00.0000 UT      
Step-size       : 1 minutes
*******************************************************************************
Target pole/equ : undefined
Target radii    : undefined                                                    
Center geodetic : 289.2634, -30.2406227, 2.71233  {E-lon(deg),Lat(deg),Alt(km)}
Center cylindric: 289.2634,5517.21435,-3194.81213 {E-lon(deg),Dxy(km),Dz(km)}
Center pole/equ : ITRF93                          {East-longitude positive}
Center radii    : 6378.137, 6378.137, 6356.752 km {Equator_a, b, pole_c}       
Target primary  : Sun
Vis. interferer : MOON (R_eq= 1737.400) km        {source: DE441}
Rel. light bend : Sun                             {source: DE441}
Rel. lght bnd GM: 1.3271E+11 km^3/s^2                                          
Small-body perts: Yes                             {source: SB441-N16}
Atmos refraction: NO (AIRLESS)
RA format       : HMS
Time format     : CAL 
Calendar mode   : Mixed Julian/Gregorian
RTS-only print  : NO       
EOP file        : eop.240715.p241008                                           
EOP coverage    : DATA-BASED 1962-JAN-20 TO 2024-JUL-15. PREDICTS-> 2024-OCT-07
Units conversion: 1 au= 149597870.700 km, c= 299792.458 km/s, 1 day= 86400.0 s 
Table cut-offs 1: Elevation (-90.0deg=NO ),Airmass (>38.000=NO), Daylight (YES)
Table cut-offs 2: Solar elongation (  0.0,180.0=NO ),Local Hour Angle( 0.0=NO )
Table cut-offs 3: RA/DEC angular rate (     0.0=NO )                           
*******************************************************************************
Initial IAU76/J2000 heliocentric ecliptic osculating elements (au, days, deg.):
  EPOCH=  2458368.5 ! 2018-Sep-07.00 (TDB)         Residual RMS= .299          
   EC= .2816093255492492   QR= .7991213126369837   TP= 2458438.7854507864      
   OM= 166.9631715555783   W=  267.8210074013559   IN= 5.127543488636634       
  Equivalent ICRF heliocentric cartesian coordinates (au, au/d):
   X= 9.883258176612897E-01  Y=-2.654573099408967E-01  Z=-1.095366816313374E-01
  VX= 1.112505236628486E-04 VY= 1.667631342697191E-02 VZ= 5.559084906068471E-03
Asteroid physical parameters (km, seconds, rotational period in hours):        
   GM= n.a.                RAD= n.a.               ROTPER= n.a.                
   H= 27.9                 G= .150                 B-V= n.a.                   
                           ALBEDO= n.a.            STYP= n.a.                  
*******************************************************************************
 Date__(UT)__HR:MN     R.A._________(ICRF)_________DEC
******************************************************
$$SOE
 2018-Dec-26 06:04  m  13 48 39.738035 -15 39 47.00093
 2018-Dec-26 06:05  m  13 48 39.859837 -15 39 47.31068
 2018-Dec-26 06:06  m  13 48 39.981623 -15 39 47.62043
 2018-Dec-26 06:07  m  13 48 40.103392 -15 39 47.93018
 2018-Dec-26 06:08  m  13 48 40.225146 -15 39 48.23993
 2018-Dec-26 06:09  m  13 48 40.346882 -15 39 48.54967
 2018-Dec-26 06:10  m  13 48 40.468603 -15 39 48.85942
 2018-Dec-26 06:11  m  13 48 40.590307 -15 39 49.16917
 2018-Dec-26 06:12  m  13 48 40.711995 -15 39 49.47891
 2018-Dec-26 06:13  m  13 48 40.833667 -15 39 49.78865
 2018-Dec-26 06:14  m  13 48 40.955322 -15 39 50.09839
 2018-Dec-26 06:15  m  13 48 41.076961 -15 39 50.40813
 2018-Dec-26 06:16  m  13 48 41.198583 -15 39 50.71786
 2018-Dec-26 06:17  m  13 48 41.320190 -15 39 51.02759
 2018-Dec-26 06:18  m  13 48 41.441779 -15 39 51.33732
 2018-Dec-26 06:19  m  13 48 41.563353 -15 39 51.64704
 2018-Dec-26 06:20  m  13 48 41.684910 -15 39 51.95676
 2018-Dec-26 06:21  m  13 48 41.806451 -15 39 52.26648
 2018-Dec-26 06:22  m  13 48 41.927976 -15 39 52.57619
 2018-Dec-26 06:23  m  13 48 42.049484 -15 39 52.88589
 2018-Dec-26 06:24  m  13 48 42.170976 -15 39 53.19559
 2018-Dec-26 06:25  m  13 48 42.292452 -15 39 53.50529
 2018-Dec-26 06:26  m  13 48 42.413911 -15 39 53.81498
 2018-Dec-26 06:27  m  13 48 42.535354 -15 39 54.12466
 2018-Dec-26 06:28  m  13 48 42.656781 -15 39 54.43434
 2018-Dec-26 06:29  m  13 48 42.778192 -15 39 54.74401
 2018-Dec-26 06:30  m  13 48 42.899586 -15 39 55.05368
 2018-Dec-26 06:31  m  13 48 43.020964 -15 39 55.36334
 2018-Dec-26 06:32  m  13 48 43.142325 -15 39 55.67299
 2018-Dec-26 06:33  m  13 48 43.263671 -15 39 55.98263
 2018-Dec-26 06:34  m  13 48 43.385000 -15 39 56.29226
 2018-Dec-26 06:35  m  13 48 43.506313 -15 39 56.60189
 2018-Dec-26 06:36  m  13 48 43.627609 -15 39 56.91151
 2018-Dec-26 06:37  m  13 48 43.748890 -15 39 57.22112
 2018-Dec-26 06:38  m  13 48 43.870154 -15 39 57.53072
 2018-Dec-26 06:39  m  13 48 43.991401 -15 39 57.84031
 2018-Dec-26 06:40  m  13 48 44.112633 -15 39 58.14989
 2018-Dec-26 06:41  m  13 48 44.233848 -15 39 58.45946
 2018-Dec-26 06:42  m  13 48 44.355048 -15 39 58.76903
 2018-Dec-26 06:43  m  13 48 44.476231 -15 39 59.07858
 2018-Dec-26 06:44  m  13 48 44.597397 -15 39 59.38812
 2018-Dec-26 06:45  m  13 48 44.718548 -15 39 59.69765
 2018-Dec-26 06:46  m  13 48 44.839683 -15 40 00.00717
 2018-Dec-26 06:47  m  13 48 44.960801 -15 40 00.31668
 2018-Dec-26 06:48  m  13 48 45.081903 -15 40 00.62617
 2018-Dec-26 06:49  m  13 48 45.202989 -15 40 00.93566
 2018-Dec-26 06:50  m  13 48 45.324059 -15 40 01.24513
 2018-Dec-26 06:51  m  13 48 45.445113 -15 40 01.55459
 2018-Dec-26 06:52  m  13 48 45.566150 -15 40 01.86403
 2018-Dec-26 06:53  m  13 48 45.687172 -15 40 02.17347
 2018-Dec-26 06:54  m  13 48 45.808177 -15 40 02.48289
 2018-Dec-26 06:55  m  13 48 45.929167 -15 40 02.79229
 2018-Dec-26 06:56  m  13 48 46.050140 -15 40 03.10168
 2018-Dec-26 06:57  m  13 48 46.171097 -15 40 03.41106
 2018-Dec-26 06:58  m  13 48 46.292038 -15 40 03.72043
 2018-Dec-26 06:59  m  13 48 46.412964 -15 40 04.02977
 2018-Dec-26 07:00  m  13 48 46.533873 -15 40 04.33911
 2018-Dec-26 07:01  m  13 48 46.654766 -15 40 04.64843
 2018-Dec-26 07:02  m  13 48 46.775643 -15 40 04.95773
 2018-Dec-26 07:03  m  13 48 46.896505 -15 40 05.26702
 2018-Dec-26 07:04  m  13 48 47.017350 -15 40 05.57629
 2018-Dec-26 07:05  m  13 48 47.138179 -15 40 05.88554
 2018-Dec-26 07:06  m  13 48 47.258993 -15 40 06.19478
 2018-Dec-26 07:07  m  13 48 47.379790 -15 40 06.50400
 2018-Dec-26 07:08  m  13 48 47.500572 -15 40 06.81321
 2018-Dec-26 07:09  m  13 48 47.621338 -15 40 07.12239
 2018-Dec-26 07:10  m  13 48 47.742088 -15 40 07.43156
 2018-Dec-26 07:11  m  13 48 47.862822 -15 40 07.74071
 2018-Dec-26 07:12  m  13 48 47.983541 -15 40 08.04984
 2018-Dec-26 07:13  m  13 48 48.104243 -15 40 08.35896
 2018-Dec-26 07:14  m  13 48 48.224930 -15 40 08.66805
 2018-Dec-26 07:15  m  13 48 48.345601 -15 40 08.97713
 2018-Dec-26 07:16  m  13 48 48.466256 -15 40 09.28619
 2018-Dec-26 07:17  m  13 48 48.586896 -15 40 09.59522
 2018-Dec-26 07:18  m  13 48 48.707520 -15 40 09.90424
 2018-Dec-26 07:19  m  13 48 48.828128 -15 40 10.21324
 2018-Dec-26 07:20  m  13 48 48.948720 -15 40 10.52221
 2018-Dec-26 07:21  m  13 48 49.069297 -15 40 10.83117
 2018-Dec-26 07:22  m  13 48 49.189858 -15 40 11.14011
 2018-Dec-26 07:23  m  13 48 49.310404 -15 40 11.44902
 2018-Dec-26 07:24  m  13 48 49.430934 -15 40 11.75791
 2018-Dec-26 07:25  m  13 48 49.551449 -15 40 12.06678
 2018-Dec-26 07:26  m  13 48 49.671948 -15 40 12.37563
 2018-Dec-26 07:27  m  13 48 49.792431 -15 40 12.68446
 2018-Dec-26 07:28  m  13 48 49.912899 -15 40 12.99326
 2018-Dec-26 07:29  m  13 48 50.033351 -15 40 13.30204
 2018-Dec-26 07:30  m  13 48 50.153788 -15 40 13.61080
 2018-Dec-26 07:31  m  13 48 50.274210 -15 40 13.91954
 2018-Dec-26 07:32  m  13 48 50.394616 -15 40 14.22825
 2018-Dec-26 07:33  m  13 48 50.515007 -15 40 14.53694
 2018-Dec-26 07:34  m  13 48 50.635383 -15 40 14.84560
 2018-Dec-26 07:35  m  13 48 50.755743 -15 40 15.15424
 2018-Dec-26 07:36  m  13 48 50.876088 -15 40 15.46285
 2018-Dec-26 07:37  m  13 48 50.996417 -15 40 15.77144
 2018-Dec-26 07:38  m  13 48 51.116731 -15 40 16.08001
 2018-Dec-26 07:39  m  13 48 51.237031 -15 40 16.38854
 2018-Dec-26 07:40  m  13 48 51.357314 -15 40 16.69706
 2018-Dec-26 07:41  m  13 48 51.477583 -15 40 17.00555
 2018-Dec-26 07:42  m  13 48 51.597837 -15 40 17.31401
 2018-Dec-26 07:43  m  13 48 51.718075 -15 40 17.62244
 2018-Dec-26 07:44  m  13 48 51.838298 -15 40 17.93085
 2018-Dec-26 07:45  m  13 48 51.958507 -15 40 18.23923
 2018-Dec-26 07:46  m  13 48 52.078700 -15 40 18.54758
 2018-Dec-26 07:47  m  13 48 52.198878 -15 40 18.85591
 2018-Dec-26 07:48  m  13 48 52.319041 -15 40 19.16421
 2018-Dec-26 07:49  m  13 48 52.439190 -15 40 19.47248
 2018-Dec-26 07:50  m  13 48 52.559323 -15 40 19.78072
 2018-Dec-26 07:51  m  13 48 52.679441 -15 40 20.08894
 2018-Dec-26 07:52  m  13 48 52.799545 -15 40 20.39712
 2018-Dec-26 07:53  m  13 48 52.919634 -15 40 20.70528
 2018-Dec-26 07:54  m  13 48 53.039708 -15 40 21.01340
 2018-Dec-26 07:55  m  13 48 53.159767 -15 40 21.32150
 2018-Dec-26 07:56  m  13 48 53.279811 -15 40 21.62957
 2018-Dec-26 07:57  m  13 48 53.399841 -15 40 21.93761
 2018-Dec-26 07:58  m  13 48 53.519856 -15 40 22.24561
 2018-Dec-26 07:59  m  13 48 53.639856 -15 40 22.55359
 2018-Dec-26 08:00  m  13 48 53.759842 -15 40 22.86154
 2018-Dec-26 08:01  m  13 48 53.879813 -15 40 23.16945
 2018-Dec-26 08:02  m  13 48 53.999769 -15 40 23.47734
 2018-Dec-26 08:03  m  13 48 54.119711 -15 40 23.78519
 2018-Dec-26 08:04 Am  13 48 54.239639 -15 40 24.09301
 2018-Dec-26 08:05 Am  13 48 54.359552 -15 40 24.40080
 2018-Dec-26 08:06 Am  13 48 54.479450 -15 40 24.70855
